QIANFAN-60              
1 62790U 25016F   25328.85649366  .00000074  00000+0  95440-4 0  9991
2 62790  88.9746 104.9242 0016528  40.5462 319.6917 13.50977807 44813
QIANFAN-61              
1 62791U 25016G   25328.81517018  .00000131  00000+0  18362-3 0  9997
2 62791  88.9813 105.0792 0015464  40.3736 319.8560 13.50974893 44820
QIANFAN-62              
1 62792U 25016H   25328.81931804  .00000128  00000+0  17999-3 0  9992
2 62792  88.9760 104.9569 0016849  40.2397 319.9998 13.50984812 44819
QIANFAN-63              
1 62793U 25016J   25328.84404190  .00000112  00000+0  15488-3 0  9993
2 62793  88.9766 104.9046 0017020  45.2587 314.9947 13.50977905 44852
QIANFAN-64              
1 62794U 25016K   25328.88511953  .00000142  00000+0  20109-3 0  9993
2 62794  88.9753 104.8769 0014801  39.1511 321.0708 13.50979858 44856
QIANFAN-65              
1 62795U 25016L   25328.88106021  .00000122  00000+0  17005-3 0  9999
2 62795  88.9749 104.9040 0014672  40.8811 319.3437 13.50978748 44837
QIANFAN-66              
1 62796U 25016M   25328.83577535  .00000123  00000+0  17213-3 0  9999
2 62796  88.9769 104.8753 0015670  36.3823 323.8390 13.50982828 44878
QIANFAN-67              
1 62797U 25016N   25328.83999123  .00000123  00000+0  17206-3 0  9993
2 62797  88.9759 104.9022 0015814  42.9271 317.3112 13.50975676 44848
QIANFAN-68              
1 62798U 25016P   25328.83171743  .00000117  00000+0  16295-3 0  9994
2 62798  88.9763 104.9476 0015826  41.2564 318.9780 13.50977999 44823
QIANFAN-69              
1 62799U 25016Q   25328.77418706  .00000112  00000+0  15532-3 0  9999
2 62799  88.9741 104.8268 0016613  42.1926 318.0500 13.50980931 44859
QIANFAN-70              
1 62800U 25016R   25328.86455249  .00000143  00000+0  20207-3 0  9994
2 62800  88.9762 104.9521 0015958  32.8571 327.3569 13.50971608 44827
QIANFAN-71              
1 62801U 25016S   25328.86048675  .00000141  00000+0  19892-3 0  9992
2 62801  88.9756 104.9332 0016611  45.3275 314.9227 13.50978970 44820
QIANFAN-72              
1 62802U 25016T   25328.87696351  .00000129  00000+0  18095-3 0  9994
2 62802  88.9746 104.9466 0020027  51.3055 308.9883 13.50978878 44814
QIANFAN-73              
1 63159U 25046A   25328.82983533  .00000036  00000+0  37371-4 0  9995
2 63159  88.9751 321.8783 0015122 168.6040 191.5456 13.50974053 44996
QIANFAN-74              
1 63160U 25046B   25328.88734361  .00000023  00000+0  17175-4 0  9992
2 63160  88.9751 321.7609 0001991  85.0390 275.0989 13.50976208 45065
QIANFAN-75              
1 63161U 25046C   25328.80059747  .00000119  00000+0  16498-3 0  9995
2 63161  88.9753 322.0033 0016134 172.2610 187.8793 13.50989645 44928
QIANFAN-76              
1 63162U 25046D   25328.79700163 -.00000130  00000+0 -22026-3 0  9998
2 63162  88.9748 321.9847 0013674 171.9368 188.2006 13.50964906 44932
QIANFAN-77              
1 63163U 25046E   25328.83900136  .00000189  00000+0  12791-3 0  9996
2 63163  88.9753 320.1338 0016262 131.1313 229.1270 13.96076884 45959
QIANFAN-78              
1 63164U 25046F   25328.83803937  .00000006  00000+0 -96690-5 0  9999
2 63164  88.9751 321.8444 0014974 174.5093 185.6225 13.50974645 45013
QIANFAN-79              
1 63165U 25046G   25328.79265630  .00000037  00000+0  38482-4 0  9994
2 63165  88.9755 321.9559 0014727 172.7858 187.3508 13.50975654 44957
QIANFAN-80              
1 63166U 25046H   25328.80915463  .00000075  00000+0  97422-4 0  9994
2 63166  88.9753 321.6614 0013570 176.6053 183.5193 13.50980130 45112
QIANFAN-81              
1 63167U 25046J   25328.78787380  .00000141  00000+0  19908-3 0  9993
2 63167  88.9753 321.7317 0014970 165.6444 194.5135 13.50997267 45062
QIANFAN-82              
1 63168U 25046K   25328.82158491  .00000082  00000+0  10787-3 0  9994
2 63168  88.9753 321.7721 0012850 172.2969 187.8381 13.50976849 45053
QIANFAN-83              
1 63169U 25046L   25328.84636377  .00000063  00000+0  65260-4 0  9997
2 63169  88.9753 321.5810 0014593 159.3216 200.8535 13.61969974 45160
QIANFAN-84              
1 63170U 25046M   25328.84953751 -.00000028  00000+0 -62075-4 0  9991
2 63170  88.9748 321.9021 0015906 170.4113 189.7345 13.50985619 44988
QIANFAN-85              
1 63171U 25046N   25328.84616251  .00000102  00000+0  13963-3 0  9995
2 63171  88.9752 321.7740 0013233 171.3717 188.7664 13.50981881 45050
QIANFAN-86              
1 63172U 25046P   25328.85448890  .00000103  00000+0  14147-3 0  9995
2 63172  88.9754 321.6349 0011012 174.1109 186.0174 13.50978662 45135
QIANFAN-87              
1 63173U 25046Q   25328.89984964  .00000026  00000+0  22164-4 0  9990
2 63173  88.9750 321.7426 0011808 169.6319 190.5078 13.50971104 45074
QIANFAN-88              
1 63174U 25046R   25328.84219093  .00000091  00000+0  12258-3 0  9994
2 63174  88.9753 321.7027 0011955 178.0279 182.0922 13.50976275 45097
QIANFAN-89              
1 63175U 25046S   25328.80494453  .00000094  00000+0  12625-3 0  9997
2 63175  88.9753 321.8956 0016562 171.0709 189.0740 13.50979057 44983
QIANFAN-90              
1 63176U 25046T   25328.83370149  .00000005  00000+0 -11660-4 0  9998
2 63176  88.9749 321.8650 0013569 167.9134 192.2346 13.50974587 45005
QIANFAN-91              
1 66033U 25233A   25328.09394034  .00000590  00000+0  32511-3 0  9993
2 66033  88.9965  64.1975 0018213  95.7479 264.5783 14.10190056  5370
QIANFAN-92              
1 66034U 25233B   25328.80648225  .00000454  00000+0  25845-3 0  9998
2 66034  88.9957  64.1206 0018260  91.1614 269.1662 14.07969974  5479
QIANFAN-93              
1 66035U 25233C   25328.51346345  .00000194  00000+0  10412-3 0  9990
2 66035  88.9964  64.1495 0017440  93.7943 266.5235 14.08951018  5434
QIANFAN-94              
1 66036U 25233D   25328.58904347  .00000408  00000+0  22452-3 0  9995
2 66036  88.9963  64.1426 0016720  93.9629 266.3467 14.09613155  5445
QIANFAN-95              
1 66037U 25233E   25328.79084301  .00000817  00000+0  33479-3 0  9993
2 66037  88.9964  64.0984 0016396  95.5733 264.7331 14.26195198  5485
QIANFAN-96              
1 66038U 25233F   25328.73978786  .00000389  00000+0  22642-3 0  9991
2 66038  88.9935  64.1280 0016523 106.7548 253.5449 14.06575183  5463
QIANFAN-97              
1 66039U 25233G   25328.58982852  .00000396  00000+0  22342-3 0  9999
2 66039  88.9965  64.1427 0017406  95.7347 264.5822 14.08270325  5442
QIANFAN-98              
1 66040U 25233H   25328.80006783  .00000606  00000+0  27885-3 0  9997
2 66040  88.9964  64.0995 0016293  94.8991 265.4059 14.19814018  5481
QIANFAN-99              
1 66041U 25233J   25328.73047836  .00000391  00000+0  22260-3 0  9997
2 66041  88.9937  64.1254 0015778 103.2919 257.0025 14.07786065  5468
QIANFAN-100             
1 66042U 25233K   25328.79966829  .00000591  00000+0  27371-3 0  9996
2 66042  88.9965  64.0987 0017054  96.9359 263.3771 14.19474304  5480
QIANFAN-101             
1 66043U 25233L   25328.78101096  .00000490  00000+0  19651-3 0  9993
2 66043  88.9965  64.0971 0016973  94.2721 266.0413 14.26660314  5486
QIANFAN-102             
1 66044U 25233M   25328.71562039  .00000408  00000+0  22276-3 0  9991
2 66044  89.0025  64.1128 0018635  93.1732 267.1585 14.10113583  5462
QIANFAN-103             
1 66045U 25233N   25328.66271657  .00000291  00000+0  16658-3 0  9996
2 66045  88.9962  64.1349 0017488  94.0478 266.2704 14.06824227  5459
QIANFAN-104             
1 66046U 25233P   25328.57386972  .00000490  00000+0  26509-3 0  9991
2 66046  88.9968  64.1408 0017121  97.1710 263.1422 14.10864243  5448
QIANFAN-105             
1 66047U 25233Q   25328.71816696  .00000194  00000+0  10070-3 0  9996
2 66047  88.9944  64.1200 0016027 100.8472 259.4517 14.10635350  5464
QIANFAN-106             
1 66048U 25233R   25328.72733946  .00000189  00000+0  10301-3 0  9995
2 66048  89.0026  64.1122 0018937  92.5406 267.7945 14.07745496  5463
QIANFAN-107             
1 66049U 25233S   25328.50314335  .00000360  00000+0  19399-3 0  9996
2 66049  88.9971  64.1484 0018365  94.1579 266.1706 14.10468165  5430
QIANFAN-108             
1 66050U 25233T   25328.72140150  .00000277  00000+0  15203-3 0  9991
2 66050  89.0026  64.1117 0018458  92.4760 267.8537 14.08885059  5469
